[{"OBJECT_NAME":"CASSIOPE","OBJECT_ID":"2013-055A","EPOCH":"2026-03-09T21:11:47.938272","MEAN_MOTION":15.1877309,"ECCENTRICITY":0.03156148,"INCLINATION":80.9178,"RA_OF_ASC_NODE":186.7098,"ARG_OF_PERICENTER":35.6181,"MEAN_ANOMALY":326.5663,"EPHEMERIS_TYPE":0,"CLASSIFICATION_TYPE":"U","NORAD_CAT_ID":39265,"ELEMENT_SET_NO":999,"REV_AT_EPOCH":65256,"BSTAR":0.00049515333,"MEAN_MOTION_DOT":0.00041326,"MEAN_MOTION_DDOT":-5.06855e-7},{"OBJECT_NAME":"STARLINK-36363","OBJECT_ID":"2026-035M","EPOCH":"2026-03-09T22:00:01.999584","MEAN_MOTION":15.87048715,"ECCENTRICITY":0.00012352,"INCLINATION":97.27,"RA_OF_ASC_NODE":1.2732,"ARG_OF_PERICENTER":84.0259,"MEAN_ANOMALY":1.2148,"EPHEMERIS_TYPE":0,"CLASSIFICATION_TYPE":"U","NORAD_CAT_ID":67890,"ELEMENT_SET_NO":999,"REV_AT_EPOCH":379,"BSTAR":-0.0054705142,"MEAN_MOTION_DOT":-0.01249149,"MEAN_MOTION_DDOT":0}]
